NORAD_CAT_ID,OBJECT_NAME,OBJECT_TYPE,EPOCH,MEAN_MOTION,ECCENTRICITY,INCLINATION,RA_OF_ASC_NODE,ARG_OF_PERICENTER,MEAN_ANOMALY,BSTAR,MEAN_MOTION_DOT,MEAN_MOTION_DDOT,TLE_LINE0,TLE_LINE1,TLE_LINE2,SEMIMAJOR_AXIS,PERIOD,APOGEE,PERIGEE,DECAYED
51752.0,STARLINK-3511,PAYLOAD,2022-06-19 14:00:01,15.08847658,0.0001784,53.2168,290.3895,45.8901,313.8482,-0.00076852,-0.00012501,0.0,0 STARLINK-3511,1 51752U 22016AQ  22170.58334491 -.00012501  00000-0 -76852-3 0  9992,2 51752  53.2168 290.3895 0001784  45.8901 313.8482 15.08847658  1305,6917.857,95.437,540.956,538.488,0.0
51752.0,STARLINK-3511,PAYLOAD,2022-06-19 20:00:01,15.08850398,0.0001784,53.2164,289.2676,41.4107,237.0313,-0.00060401,-9.891e-05,0.0,0 STARLINK-3511,1 51752U 22016AQ  22170.83334491 -.00009891  00000-0 -60401-3 0  9991,2 51752  53.2164 289.2676 0001784  41.4107 237.0313 15.08850398 19679,6917.849,95.437,540.948,538.479,0.0
51752.0,STARLINK-3511,PAYLOAD,2022-06-19 22:00:00,15.08866607,0.0001761,53.2164,288.8929,41.3425,329.9966,-0.0032316,-0.0005139,0.0,0 STARLINK-3511,1 51752U 22016AQ  22170.91667824 -.00051390  00000-0 -32316-2 0  9993,2 51752  53.2164 288.8929 0001761  41.3425 329.9966 15.08866607  1308,6917.799,95.436,540.882,538.446,0.0
51752.0,STARLINK-3511,PAYLOAD,2022-06-20 12:00:00,15.08829898,0.0001714,53.2165,286.2742,41.9586,259.6027,0.00037744,5.722e-05,0.0,0 STARLINK-3511,1 51752U 22016AQ  22171.50001157  .00005722  00000-0  37744-3 0  9997,2 51752  53.2165 286.2742 0001714  41.9586 259.6027 15.08829898 19774,6917.911,95.438,540.962,538.591,0.0
51752.0,STARLINK-3511,PAYLOAD,2022-06-20 14:00:01,15.08838827,0.0001823,53.2164,285.9005,41.4032,353.0506,-0.00048553,-8.007e-05,0.0,0 STARLINK-3511,1 51752U 22016AQ  22171.58334491 -.00008007  00000-0 -48553-3 0  9996,2 51752  53.2164 285.9005 0001823  41.4032 353.0506 15.08838827  1306,6917.884,95.438,541.01,538.488,0.0
51752.0,STARLINK-3511,PAYLOAD,2022-06-20 22:00:00,15.08854028,0.0001824,53.2163,284.4037,38.0788,7.9477,-0.0010125,-0.00016372,0.0,0 STARLINK-3511,1 51752U 22016AQ  22171.91667824 -.00016372  00000-0 -10125-2 0  9999,2 51752  53.2163 284.4037 0001824  38.0788   7.9477 15.08854028  1308,6917.8380000000025,95.437,540.964,538.441,0.0
51752.0,STARLINK-3511,PAYLOAD,2022-06-21 06:00:00,15.08889069,0.0001785,53.2172,282.8977,43.7488,13.9424,-0.0053056999999999,-0.0008386,0.0,0 STARLINK-3511,1 51752U 22016AQ  22172.25001157 -.00083860  00000-0 -53057-2 0  9995,2 51752  53.2172 282.8977 0001785  43.7488  13.9424 15.08889069 19894,6917.73,95.434,540.83,538.361,0.0
51752.0,STARLINK-3511,PAYLOAD,2022-06-21 14:00:01,15.08869114,0.0001881,53.2166,281.4112,39.6923,29.5458,-0.0013334,-0.00021464,0.0,0 STARLINK-3511,1 51752U 22016AQ  22172.58334491 -.00021464  00000-0 -13334-2 0  9997,2 51752  53.2166 281.4112 0001881  39.6923  29.5458 15.08869114  1304,6917.791,95.436,540.9580000000002,538.355,0.0
51752.0,STARLINK-3511,PAYLOAD,2022-06-21 22:00:00,15.08868219,0.0001817,53.2166,279.9142,36.0588,44.7997,-0.0026857,-0.00042811,0.0,0 STARLINK-3511,1 51752U 22016AQ  22172.91667824 -.00042811  00000-0 -26857-2 0  9996,2 51752  53.2166 279.9142 0001817  36.0588  44.7997 15.08868219  1308,6917.794,95.436,540.9159999999998,538.4019999999998,0.0
51752.0,STARLINK-3511,PAYLOAD,2022-06-22 00:00:02,15.08853579,0.0001738,53.2168,279.5395,36.9969,136.8321,-0.001209,-0.00019485,0.0,0 STARLINK-3511,1 51752U 22016AQ  22173.00002315 -.00019485  00000-0 -12090-2 0  9990,2 51752  53.2168 279.5395 0001738  36.9969 136.8321 15.08853579 20005,6917.839,95.437,540.906,538.502,0.0
51752.0,STARLINK-3511,PAYLOAD,2022-06-22 14:00:01,15.08847043,0.0001826,53.2171,276.9218,34.973,69.1123,-0.0014756,-0.000237,0.0,0 STARLINK-3511,1 51752U 22016AQ  22173.58334491 -.00023700  00000-0 -14756-2 0  9992,2 51752  53.2171 276.9218 0001826  34.9730  69.1123 15.08847043  1305,6917.859,95.437,540.987,538.461,0.0
51752.0,STARLINK-3511,PAYLOAD,2022-06-22 22:00:00,15.08856655,0.0001781999999999,53.2171,275.4247,32.7502,82.9253,-0.0012474,-0.00020095,0.0,0 STARLINK-3511,1 51752U 22016AQ  22173.91667824 -.00020095  00000-0 -12474-2 0  9997,2 51752  53.2171 275.4247 0001782  32.7502  82.9253 15.08856655  1301,6917.829000000002,95.437,540.927,538.462,0.0
51752.0,STARLINK-3511,PAYLOAD,2022-06-23 00:00:02,15.08852476,0.0001706999999999,53.2173,275.05,33.9065,174.7346,-0.00067717,-0.00011053,0.0,0 STARLINK-3511,1 51752U 22016AQ  22174.00002315 -.00011053  00000-0 -67717-3 0  9991,2 51752  53.2173 275.0500 0001707  33.9065 174.7346 15.08852476 20159,6917.842,95.437,540.888,538.526,0.0
51752.0,STARLINK-3511,PAYLOAD,2022-06-23 14:00:01,15.08835211,0.0001918,53.2176,272.4325,36.6713,102.2238,-0.00042105,-6.982e-05,0.0,0 STARLINK-3511,1 51752U 22016AQ  22174.58334491 -.00006982  00000-0 -42105-3 0  9996,2 51752  53.2176 272.4325 0001918  36.6713 102.2238 15.08835211  1302,6917.895,95.438,541.087,538.433,0.0
51752.0,STARLINK-3511,PAYLOAD,2022-06-23 22:00:00,15.08857124,0.0001898,53.2174,270.9354,38.2023,112.277,-0.0040799999999999,-0.0006467,0.0,0 STARLINK-3511,1 51752U 22016AQ  22174.91667824 -.00064670  00000-0 -40800-2 0  9999,2 51752  53.2174 270.9354 0001898  38.2023 112.2770 15.08857124  1303,6917.828,95.436,541.006,538.38,0.0
51752.0,STARLINK-3511,PAYLOAD,2022-06-24 06:00:02,15.08813403,0.0001799,53.2179,269.4381,44.8115,117.3143,0.0016866,0.00026637,0.0,0 STARLINK-3511,1 51752U 22016AQ  22175.25002315  .00026637  00000-0  16866-2 0  9999,2 51752  53.2179 269.4381 0001799  44.8115 117.3143 15.08813403 20343,6917.962,95.439,541.071,538.582,0.0
51752.0,STARLINK-3511,PAYLOAD,2022-06-24 14:00:01,15.08825531,0.0001981,53.2177,267.9436,39.1925,134.4918,-0.00030824,-5.189e-05,0.0,0 STARLINK-3511,1 51752U 22016AQ  22175.58334491 -.00005189  00000-0 -30824-3 0  9990,2 51752  53.2177 267.9436 0001981  39.1925 134.4918 15.08825531  1304,6917.925,95.438,541.16,538.419,0.0
51752.0,STARLINK-3511,PAYLOAD,2022-06-24 22:00:01,15.08844214,0.0001893,53.2174,266.4462,40.3174,145.0024,-0.0018286,-0.00029276,0.0,0 STARLINK-3511,1 51752U 22016AQ  22175.91668981 -.00029276  00000-0 -18286-2 0  9991,2 51752  53.2174 266.4462 0001893  40.3174 145.0024 15.08844214  1301,6917.868,95.437,541.0419999999998,538.423,0.0
51752.0,STARLINK-3511,PAYLOAD,2022-06-25 06:00:00,15.08832024,0.0001788,53.2178,264.9494,45.6226,151.2176,0.0011206,0.00017587,0.0,0 STARLINK-3511,1 51752U 22016AQ  22176.25001157  .00017587  00000-0  11206-2 0  9990,2 51752  53.2178 264.9494 0001788  45.6226 151.2176 15.08832024 20496,6917.905,95.438,541.007,538.533,0.0
51752.0,STARLINK-3511,PAYLOAD,2022-06-25 14:00:01,15.0883045,0.0001988,53.2175,263.4549,40.2955,168.1411,0.00089461,0.00013975,0.0,0 STARLINK-3511,1 51752U 22016AQ  22176.58334491  .00013975  00000-0  89461-3 0  9992,2 51752  53.2175 263.4549 0001988  40.2955 168.1411 15.08830450  1309,6917.91,95.438,541.15,538.399,0.0
51752.0,STARLINK-3511,PAYLOAD,2022-06-25 22:00:00,15.08862791,0.000188,53.2171,261.9574,41.0671,178.9627,-0.0016645,-0.00026698,0.0,0 STARLINK-3511,1 51752U 22016AQ  22176.91667824 -.00026698  00000-0 -16645-2 0  9999,2 51752  53.2171 261.9574 0001880  41.0671 178.9627 15.08862791  1302,6917.811,95.436,540.976,538.375,0.0
51752.0,STARLINK-3511,PAYLOAD,2022-06-26 08:00:01,15.08885677,0.0001788,53.2173,260.087,43.4682,281.068,-0.0037148,-0.00058999,0.0,0 STARLINK-3511,1 51752U 22016AQ  22177.33334491 -.00058999  00000-0 -37148-2 0  9997,2 51752  53.2173 260.0870 0001788  43.4682 281.0680 15.08885677 20650,6917.741,95.435,540.8430000000002,538.369,0.0
51752.0,STARLINK-3511,PAYLOAD,2022-06-26 14:00:01,15.08833155,0.0001954,53.217,258.966,38.3951,204.9367,0.00057633,8.894e-05,0.0,0 STARLINK-3511,1 51752U 22016AQ  22177.58335648  .00008894  00000-0  57633-3 0  9998,2 51752  53.2170 258.9660 0001954  38.3951 204.9367 15.08833155  1308,6917.901,95.438,541.118,538.415,0.0
51752.0,STARLINK-3511,PAYLOAD,2022-06-26 22:00:00,15.08854881,0.0001824,53.2167,257.4685,39.0792,215.7765,-0.0017948,-0.00028751,0.0,0 STARLINK-3511,1 51752U 22016AQ  22177.91667824 -.00028751  00000-0 -17948-2 0  9999,2 51752  53.2167 257.4685 0001824  39.0792 215.7765 15.08854881 20742,6917.835,95.437,540.962,538.438,0.0
51752.0,STARLINK-3511,PAYLOAD,2022-06-27 14:00:01,15.08807435,0.0002064,53.2166,254.4773,41.0614,236.9937,0.0018634,0.00029466,0.0,0 STARLINK-3511,1 51752U 22016AQ  22178.58334491  .00029466  00000-0  18634-2 0  9999,2 51752  53.2166 254.4773 0002064  41.0614 236.9937 15.08807435  1309,6917.98,95.44,541.273,538.4169999999998,0.0
51752.0,STARLINK-3511,PAYLOAD,2022-06-27 22:00:00,15.08840863,0.0001945,53.2164,252.9796,41.8536,247.7732,-0.0013145,-0.00021148,0.0,0 STARLINK-3511,1 51752U 22016AQ  22178.91667824 -.00021148  00000-0 -13145-2 0  9998,2 51752  53.2164 252.9796 0001945  41.8536 247.7732 15.08840863 20893,6917.878000000002,95.438,541.0880000000002,538.3969999999998,0.0
51752.0,STARLINK-3511,PAYLOAD,2022-06-28 14:00:01,15.0882835,0.00021,53.2164,249.9884,40.2569,272.5394,-0.00041136,-6.827e-05,0.0,0 STARLINK-3511,1 51752U 22016AQ  22179.58334491 -.00006827  00000-0 -41136-3 0  9992,2 51752  53.2164 249.9884 0002100  40.2569 272.5394 15.08828350  1302,6917.916,95.438,541.234,538.328,0.0
51752.0,STARLINK-3511,PAYLOAD,2022-06-28 22:00:00,15.08819216,0.0001937,53.2163,248.4907,39.7689,284.6123,-0.0010995999999999,-0.00017736,0.0,0 STARLINK-3511,1 51752U 22016AQ  22179.91667824 -.00017736  00000-0 -10996-2 0  9998,2 51752  53.2163 248.4907 0001937  39.7689 284.6123 15.08819216  1309,6917.944,95.439,541.149,538.469,0.0
51752.0,STARLINK-3511,PAYLOAD,2022-06-29 14:00:01,15.08799305,0.0002144,53.2164,245.4996,39.0199,308.4956,0.0023316999999999,0.00036975,0.0,0 STARLINK-3511,1 51752U 22016AQ  22180.58334491  .00036975  00000-0  23317-2 0  9999,2 51752  53.2164 245.4996 0002144  39.0199 308.4956 15.08799305 21144,6918.005,95.44,541.3530000000002,538.387,0.0
